[{"OBJECT_NAME":"STARLINK-5844","OBJECT_ID":"2023-088W","EPOCH":"2026-03-09T19:40:23.820096","MEAN_MOTION":15.02583341,"ECCENTRICITY":0.00013868,"INCLINATION":43.0037,"RA_OF_ASC_NODE":106.3865,"ARG_OF_PERICENTER":257.8065,"MEAN_ANOMALY":102.2622,"EPHEMERIS_TYPE":0,"CLASSIFICATION_TYPE":"U","NORAD_CAT_ID":57068,"ELEMENT_SET_NO":999,"REV_AT_EPOCH":15039,"BSTAR":-0.0007433388,"MEAN_MOTION_DOT":-0.00010243,"MEAN_MOTION_DDOT":0},{"OBJECT_NAME":"AISAT","OBJECT_ID":"2014-034B","EPOCH":"2026-03-09T16:29:04.722144","MEAN_MOTION":15.06703825,"ECCENTRICITY":0.00089151,"INCLINATION":98.2441,"RA_OF_ASC_NODE":333.9816,"ARG_OF_PERICENTER":189.0234,"MEAN_ANOMALY":171.0832,"EPHEMERIS_TYPE":0,"CLASSIFICATION_TYPE":"U","NORAD_CAT_ID":40054,"ELEMENT_SET_NO":999,"REV_AT_EPOCH":63221,"BSTAR":0.00094770343,"MEAN_MOTION_DOT":0.00014038,"MEAN_MOTION_DDOT":0}]
